start=new Date('2021-10-24T00:00:00.000Z').valueOf();
sats=[{"PERIOD":"95.592","TLE_LINE1":"1 48125U 21027AK  21296.80831074  .00000781  00000-0  71290-4 0  9992","ECCENTRICITY":"0.00018070","RCS_SIZE":"LARGE","SEMIMAJOR_AXIS":"6925.331","RA_OF_ASC_NODE":"144.7799","PERIAPSIS":"545.944","MEAN_ELEMENT_THEORY":"SGP4","LAUNCH_DATE":"2021-04-07","REV_AT_EPOCH":"3158","EPOCH":"2021-10-23T19:23:58.047936","TLE_LINE2":"2 48125  53.0553 144.7799 0001807  77.6555 282.4636 15.06405891 31582","MEAN_MOTION_DOT":"0.00000781","OBJECT_TYPE":"PAYLOAD","SITE":"AFETR","ARG_OF_PERICENTER":"77.6555","OBJECT_NAME":"STARLINK-2466","FILE":"3181152","APOAPSIS":"548.447","ELEMENT_SET_NO":"999","TIME_SYSTEM":"UTC","MEAN_MOTION":"15.06405891","MEAN_MOTION_DDOT":"0.0000000000000","DECAY_DATE":null,"OBJECT_ID":"2021-027AK","MEAN_ANOMALY":"282.4636","NORAD_CAT_ID":"48125","COUNTRY_CODE":"US","BSTAR":"0.00007129000000","REF_FRAME":"TEME","GP_ID":"188024868","EPHEMERIS_TYPE":"0","CENTER_NAME":"EARTH","INCLINATION":"53.0553","CLASSIFICATION_TYPE":"U"},{"SITE":"AFETR","ARG_OF_PERICENTER":"78.9976","OBJECT_NAME":"STARLINK-2467","FILE":"3181152","APOAPSIS":"548.535","ELEMENT_SET_NO":"999","TIME_SYSTEM":"UTC","MEAN_MOTION":"15.06379906","MEAN_MOTION_DDOT":"0.0000000000000","DECAY_DATE":null,"OBJECT_ID":"2021-027AL","NORAD_CAT_ID":"48126","MEAN_ANOMALY":"281.1217","COUNTRY_CODE":"US","BSTAR":"0.00005114300000","GP_ID":"188025618","REF_FRAME":"TEME","EPHEMERIS_TYPE":"0","CENTER_NAME":"EARTH","INCLINATION":"53.0516","CLASSIFICATION_TYPE":"U","PERIOD":"95.593","TLE_LINE1":"1 48126U 21027AL  21296.78532077  .00000480  00000-0  51143-4 0  9992","RCS_SIZE":"LARGE","SEMIMAJOR_AXIS":"6925.410","ECCENTRICITY":"0.00018190","RA_OF_ASC_NODE":"124.8937","PERIAPSIS":"546.015","MEAN_ELEMENT_THEORY":"SGP4","LAUNCH_DATE":"2021-04-07","REV_AT_EPOCH":"3186","EPOCH":"2021-10-23T18:50:51.714528","TLE_LINE2":"2 48126  53.0516 124.8937 0001819  78.9976 281.1217 15.06379906 31868","MEAN_MOTION_DOT":"0.00000480","OBJECT_TYPE":"PAYLOAD"},{"EPOCH":"2021-10-23T18:37:33.478752","TLE_LINE2":"2 48127  53.0554 144.9251 0001598  71.3275 288.7888 15.06399903 31570","MEAN_MOTION_DOT":"0.00000821","OBJECT_TYPE":"PAYLOAD","MEAN_ELEMENT_THEORY":"SGP4","PERIAPSIS":"546.107","LAUNCH_DATE":"2021-04-07","REV_AT_EPOCH":"3157","TLE_LINE1":"1 48127U 21027AM  21296.77608193  .00000821  00000-0  73980-4 0  9997","RCS_SIZE":"LARGE","SEMIMAJOR_AXIS":"6925.349","ECCENTRICITY":"0.00015980","RA_OF_ASC_NODE":"144.9251","PERIOD":"95.592","EPHEMERIS_TYPE":"0","CENTER_NAME":"EARTH","INCLINATION":"53.0554","CLASSIFICATION_TYPE":"U","MEAN_ANOMALY":"288.7888","NORAD_CAT_ID":"48127","COUNTRY_CODE":"US","BSTAR":"0.00007398000000","GP_ID":"188024366","REF_FRAME":"TEME","TIME_SYSTEM":"UTC","MEAN_MOTION":"15.06399903","MEAN_MOTION_DDOT":"0.0000000000000","DECAY_DATE":null,"OBJECT_ID":"2021-027AM","ARG_OF_PERICENTER":"71.3275","SITE":"AFETR","OBJECT_NAME":"STARLINK-2468","ELEMENT_SET_NO":"999","FILE":"3181152","APOAPSIS":"548.321"},{"OBJECT_NAME":"STARLINK-2469","ELEMENT_SET_NO":"999","FILE":"3181152","APOAPSIS":"491.012","ARG_OF_PERICENTER":"43.9088","SITE":"AFETR","DECAY_DATE":null,"OBJECT_ID":"2021-027AN","MEAN_MOTION":"15.25514008","MEAN_MOTION_DDOT":"0.0000000000000","TIME_SYSTEM":"UTC","REF_FRAME":"TEME","GP_ID":"188024616","BSTAR":"-0.00942570000000","COUNTRY_CODE":"US","NORAD_CAT_ID":"48128","MEAN_ANOMALY":"316.2114","INCLINATION":"53.0477","CLASSIFICATION_TYPE":"U","CENTER_NAME":"EARTH","EPHEMERIS_TYPE":"0","PERIOD":"94.394","RA_OF_ASC_NODE":"75.8391","RCS_SIZE":"LARGE","SEMIMAJOR_AXIS":"6867.379","ECCENTRICITY":"0.00025740","TLE_LINE1":"1 48128U 21027AN  21296.66036818 -.00234837  00000-0 -94257-2 0  9991","REV_AT_EPOCH":"3252","PERIAPSIS":"487.477","MEAN_ELEMENT_THEORY":"SGP4","LAUNCH_DATE":"2021-04-07","MEAN_MOTION_DOT":"-0.00234837","OBJECT_TYPE":"PAYLOAD","TLE_LINE2":"2 48128  53.0477  75.8391 0002574  43.9088 316.2114 15.25514008 32525","EPOCH":"2021-10-23T15:50:55.810752"},{"GP_ID":"188025368","REF_FRAME":"TEME","BSTAR":"0.00010416000000","COUNTRY_CODE":"US","MEAN_ANOMALY":"283.7905","NORAD_CAT_ID":"48129","INCLINATION":"53.0553","CLASSIFICATION_TYPE":"U","CENTER_NAME":"EARTH","EPHEMERIS_TYPE":"0","OBJECT_NAME":"STARLINK-2471","APOAPSIS":"548.655","FILE":"3181152","ELEMENT_SET_NO":"999","SITE":"AFETR","ARG_OF_PERICENTER":"76.3313","DECAY_DATE":null,"OBJECT_ID":"2021-027AP","MEAN_MOTION":"15.06394883","MEAN_MOTION_DDOT":"0.0000000000000","TIME_SYSTEM":"UTC","REV_AT_EPOCH":"3157","MEAN_ELEMENT_THEORY":"SGP4","PERIAPSIS":"545.803","LAUNCH_DATE":"2021-04-07","MEAN_MOTION_DOT":"0.00001270","OBJECT_TYPE":"PAYLOAD","TLE_LINE2":"2 48129  53.0553 144.9567 0002059  76.3313 283.7905 15.06394883 31579","EPOCH":"2021-10-23T18:26:57.960960","PERIOD":"95.592","RA_OF_ASC_NODE":"144.9567","RCS_SIZE":"LARGE","ECCENTRICITY":"0.00020590","SEMIMAJOR_AXIS":"6925.364","TLE_LINE1":"1 48129U 21027AP  21296.76872640  .00001270  00000-0  10416-3 0  9991"},{"OBJECT_NAME":"STARLINK-2472","ELEMENT_SET_NO":"999","FILE":"3181152","APOAPSIS":"548.262","SITE":"AFETR","ARG_OF_PERICENTER":"78.4838","MEAN_MOTION":"15.06390887","MEAN_MOTION_DDOT":"0.0000000000000","DECAY_DATE":null,"OBJECT_ID":"2021-027AQ","TIME_SYSTEM":"UTC","BSTAR":"-0.00006177400000","REF_FRAME":"TEME","GP_ID":"188025119","NORAD_CAT_ID":"48130","MEAN_ANOMALY":"281.6317","COUNTRY_CODE":"US","CENTER_NAME":"EARTH","INCLINATION":"53.0557","CLASSIFICATION_TYPE":"U","EPHEMERIS_TYPE":"0","PERIOD":"95.593","RA_OF_ASC_NODE":"150.0140","TLE_LINE1":"1 48130U 21027AQ  21296.75809542 -.00001201  00000-0 -61774-4 0  9993","SEMIMAJOR_AXIS":"6925.376","RCS_SIZE":"LARGE","ECCENTRICITY":"0.00014730","PERIAPSIS":"546.221","MEAN_ELEMENT_THEORY":"SGP4","LAUNCH_DATE":"2021-04-07","REV_AT_EPOCH":"3150","MEAN_MOTION_DOT":"-0.00001201","OBJECT_TYPE":"PAYLOAD","EPOCH":"2021-10-23T18:11:39.444288","TLE_LINE2":"2 48130  53.0557 150.0140 0001473  78.4838 281.6317 15.06390887 31501"},{"PERIOD":"95.593","RA_OF_ASC_NODE":"124.9342","ECCENTRICITY":"0.00016840","RCS_SIZE":"LARGE","SEMIMAJOR_AXIS":"6925.406","TLE_LINE1":"1 48131U 21027AR  21296.77795578  .00000647  00000-0  62354-4 0  9995","REV_AT_EPOCH":"3185","PERIAPSIS":"546.105","MEAN_ELEMENT_THEORY":"SGP4","LAUNCH_DATE":"2021-04-07","MEAN_MOTION_DOT":"0.00000647","OBJECT_TYPE":"PAYLOAD","TLE_LINE2":"2 48131  53.0548 124.9342 0001684  79.9261 280.1918 15.06381152 31850","EPOCH":"2021-10-23T18:40:15.379392","OBJECT_NAME":"STARLINK-2473","ELEMENT_SET_NO":"999","FILE":"3181152","APOAPSIS":"548.438","ARG_OF_PERICENTER":"79.9261","SITE":"AFETR","DECAY_DATE":null,"OBJECT_ID":"2021-027AR","MEAN_MOTION":"15.06381152","MEAN_MOTION_DDOT":"0.0000000000000","TIME_SYSTEM":"UTC","GP_ID":"188023867","REF_FRAME":"TEME","BSTAR":"0.00006235400000","COUNTRY_CODE":"US","MEAN_ANOMALY":"280.1918","NORAD_CAT_ID":"48131","INCLINATION":"53.0548","CLASSIFICATION_TYPE":"U","CENTER_NAME":"EARTH","EPHEMERIS_TYPE":"0"},{"TIME_SYSTEM":"UTC","DECAY_DATE":null,"OBJECT_ID":"2021-027AS","MEAN_MOTION":"15.06387826","MEAN_MOTION_DDOT":"0.0000000000000","ARG_OF_PERICENTER":"77.3844","SITE":"AFETR","OBJECT_NAME":"STARLINK-2474","APOAPSIS":"548.439","FILE":"3181152","ELEMENT_SET_NO":"999","EPHEMERIS_TYPE":"0","INCLINATION":"53.0557","CLASSIFICATION_TYPE":"U","CENTER_NAME":"EARTH","COUNTRY_CODE":"US","NORAD_CAT_ID":"48132","MEAN_ANOMALY":"282.7337","REF_FRAME":"TEME","GP_ID":"188024117","BSTAR":"0.00003627600000","RCS_SIZE":"LARGE","ECCENTRICITY":"0.00017150","SEMIMAJOR_AXIS":"6925.386","TLE_LINE1":"1 48132U 21027AS  21296.62498199  .00000259  00000-0  36276-4 0  9992","RA_OF_ASC_NODE":"145.6060","PERIOD":"95.593","TLE_LINE2":"2 48132  53.0557 145.6060 0001715  77.3844 282.7337 15.06387826 31545","EPOCH":"2021-10-23T14:59:58.443936","MEAN_MOTION_DOT":"0.00000259","OBJECT_TYPE":"PAYLOAD","REV_AT_EPOCH":"3154","MEAN_ELEMENT_THEORY":"SGP4","PERIAPSIS":"546.063","LAUNCH_DATE":"2021-04-07"},{"INCLINATION":"53.0552","CLASSIFICATION_TYPE":"U","CENTER_NAME":"EARTH","EPHEMERIS_TYPE":"0","GP_ID":"188024869","REF_FRAME":"TEME","BSTAR":"0.00010308000000","COUNTRY_CODE":"US","NORAD_CAT_ID":"48133","MEAN_ANOMALY":"280.5300","DECAY_DATE":null,"OBJECT_ID":"2021-027AT","MEAN_MOTION":"15.06407695","MEAN_MOTION_DDOT":"0.0000000000000","TIME_SYSTEM":"UTC","OBJECT_NAME":"STARLINK-2475","FILE":"3181152","ELEMENT_SET_NO":"999","APOAPSIS":"548.419","ARG_OF_PERICENTER":"79.5889","SITE":"AFETR","MEAN_MOTION_DOT":"0.00001254","OBJECT_TYPE":"PAYLOAD","TLE_LINE2":"2 48133  53.0552 145.0268 0001774  79.5889 280.5300 15.06407695 31579","EPOCH":"2021-10-23T18:05:42.521568","REV_AT_EPOCH":"3157","MEAN_ELEMENT_THEORY":"SGP4","PERIAPSIS":"545.961","LAUNCH_DATE":"2021-04-07","RA_OF_ASC_NODE":"145.0268","RCS_SIZE":"LARGE","SEMIMAJOR_AXIS":"6925.325","ECCENTRICITY":"0.00017740","TLE_LINE1":"1 48133U 21027AT  21296.75396437  .00001254  00000-0  10308-3 0  9992","PERIOD":"95.592"},{"REF_FRAME":"TEME","GP_ID":"188025619","BSTAR":"-0.00005398300000","COUNTRY_CODE":"US","NORAD_CAT_ID":"48134","MEAN_ANOMALY":"280.4260","INCLINATION":"53.0553","CLASSIFICATION_TYPE":"U","CENTER_NAME":"EARTH","EPHEMERIS_TYPE":"0","OBJECT_NAME":"STARLINK-2476","FILE":"3181152","ELEMENT_SET_NO":"999","APOAPSIS":"548.483","SITE":"AFETR","ARG_OF_PERICENTER":"79.6932","DECAY_DATE":null,"OBJECT_ID":"2021-027AU","MEAN_MOTION":"15.06393288","MEAN_MOTION_DDOT":"0.0000000000000","TIME_SYSTEM":"UTC","REV_AT_EPOCH":"3156","PERIAPSIS":"545.985","MEAN_ELEMENT_THEORY":"SGP4","LAUNCH_DATE":"2021-04-07","MEAN_MOTION_DOT":"-0.00001085","OBJECT_TYPE":"PAYLOAD","TLE_LINE2":"2 48134  53.0553 145.0907 0001803  79.6932 280.4260 15.06393288 31569","EPOCH":"2021-10-23T17:44:29.225760","PERIOD":"95.593","RA_OF_ASC_NODE":"145.0907","ECCENTRICITY":"0.00018030","RCS_SIZE":"LARGE","SEMIMAJOR_AXIS":"6925.369","TLE_LINE1":"1 48134U 21027AU  21296.73922715 -.00001085  00000-0 -53983-4 0  9996"}];
